{
    "links": {
        "self": "http://www.neowsapp.com/rest/v1/neo/3720979?api_key=iIulBulltgU6a56xZRHN4H3l9WmuAYTsLGpBGhQ2"
    },
    "id": "3720979",
    "neo_reference_id": "3720979",
    "name": "(2015 LH2)",
    "designation": "2015 LH2",
    "nasa_jpl_url": "http://ssd.jpl.nasa.gov/sbdb.cgi?sstr=3720979",
    "absolute_magnitude_h": 26.2,
    "estimated_diameter": {
        "kilometers": {
            "estimated_diameter_min": 0.0152951935,
            "estimated_diameter_max": 0.0342010925
        },
        "meters": {
            "estimated_diameter_min": 15.2951935344,
            "estimated_diameter_max": 34.201092472
        },
        "miles": {
            "estimated_diameter_min": 0.0095039897,
            "estimated_diameter_max": 0.021251567
        },
        "feet": {
            "estimated_diameter_min": 50.1810827555,
            "estimated_diameter_max": 112.2083122258
        }
    },
    "is_potentially_hazardous_asteroid": false,
    "close_approach_data": [
        {
            "close_approach_date": "2015-06-09",
            "close_approach_date_full": "2015-Jun-09 10:55",
            "epoch_date_close_approach": 1433847300000,
            "relative_velocity": {
                "kilometers_per_second": "11.707069689",
                "kilometers_per_hour": "42145.4508804432",
                "miles_per_hour": "26187.5441873509"
            },
            "miss_distance": {
                "astronomical": "0.0133333132",
                "lunar": "5.1866588348",
                "kilometers": "1994635.254762884",
                "miles": "1239408.8751564392"
            },
            "orbiting_body": "Earth"
        }
    ],
    "orbital_data": {
        "orbit_id": "3",
        "orbit_determination_date": "2017-04-06 08:33:12",
        "first_observation_date": "2015-06-07",
        "last_observation_date": "2015-06-09",
        "data_arc_in_days": 2,
        "observations_used": 39,
        "orbit_uncertainty": "8",
        "minimum_orbit_intersection": ".0113567",
        "jupiter_tisserand_invariant": "3.404",
        "epoch_osculation": "2457181.5",
        "eccentricity": ".5774326865931997",
        "semi_major_axis": "2.219571273183861",
        "inclination": "6.27124084396118",
        "ascending_node_longitude": "253.7100668046282",
        "orbital_period": "1207.819591564772",
        "perihelion_distance": ".9379182698242152",
        "perihelion_argument": "44.06295539548643",
        "aphelion_distance": "3.501224276543506",
        "perihelion_time": "2457213.548147007526",
        "mean_anomaly": "350.4478011424187",
        "mean_motion": ".298057758388906",
        "equinox": "J2000",
        "orbit_class": {
            "orbit_class_type": "APO",
            "orbit_class_description": "Near-Earth asteroid orbits which cross the Earth’s orbit similar to that of 1862 Apollo",
            "orbit_class_range": "a (semi-major axis) > 1.0 AU; q (perihelion) < 1.017 AU"
        }
    },
    "is_sentry_object": false
}